CCSDS_OMM_VERS = 2.0
CREATION_DATE  = 
ORIGINATOR     = 

OBJECT_NAME    = DELTA 2 R/B(1)
OBJECT_ID      = 1990-008B
CENTER_NAME    = EARTH
REF_FRAME      = TEME
TIME_SYSTEM    = UTC
MEAN_ELEMENT_THEORY = SGP/SGP4

EPOCH          = 2026-02-10T06:19:29.322912
MEAN_MOTION    = 15.52162436
ECCENTRICITY   = .00935321
INCLINATION    = 35.6055
RA_OF_ASC_NODE = 354.3158
ARG_OF_PERICENTER = 2.5651
MEAN_ANOMALY   = 357.5548

EPHEMERIS_TYPE = 0
CLASSIFICATION_TYPE = U
NORAD_CAT_ID   = 20453
ELEMENT_SET_NO = 999
REV_AT_EPOCH   = 92186
BSTAR          = .87954103E-3
MEAN_MOTION_DOT = .66828E-3
MEAN_MOTION_DDOT = 0

CCSDS_OMM_VERS = 2.0
CREATION_DATE  = 
ORIGINATOR     = 

OBJECT_NAME    = COSMOS 2058
OBJECT_ID      = 1990-010A
CENTER_NAME    = EARTH
REF_FRAME      = TEME
TIME_SYSTEM    = UTC
MEAN_ELEMENT_THEORY = SGP/SGP4

EPOCH          = 2026-02-10T04:03:17.447616
MEAN_MOTION    = 15.11064924
ECCENTRICITY   = .00119143
INCLINATION    = 82.4644
RA_OF_ASC_NODE = 74.5395
ARG_OF_PERICENTER = 73.9291
MEAN_ANOMALY   = 286.3250

EPHEMERIS_TYPE = 0
CLASSIFICATION_TYPE = U
NORAD_CAT_ID   = 20465
ELEMENT_SET_NO = 999
REV_AT_EPOCH   = 93808
BSTAR          = .25807129E-3
MEAN_MOTION_DOT = .4351E-4
MEAN_MOTION_DDOT = 0

CCSDS_OMM_VERS = 2.0
CREATION_DATE  = 
ORIGINATOR     = 

OBJECT_NAME    = SL-14 R/B
OBJECT_ID      = 1990-010B
CENTER_NAME    = EARTH
REF_FRAME      = TEME
TIME_SYSTEM    = UTC
MEAN_ELEMENT_THEORY = SGP/SGP4

EPOCH          = 2026-02-10T04:02:37.599072
MEAN_MOTION    = 14.83544862
ECCENTRICITY   = .00207092
INCLINATION    = 82.5025
RA_OF_ASC_NODE = 293.2415
ARG_OF_PERICENTER = 34.3435
MEAN_ANOMALY   = 325.9114

EPHEMERIS_TYPE = 0
CLASSIFICATION_TYPE = U
NORAD_CAT_ID   = 20466
ELEMENT_SET_NO = 999
REV_AT_EPOCH   = 92440
BSTAR          = .56941764E-4
MEAN_MOTION_DOT = .494E-5
MEAN_MOTION_DDOT = 0

CCSDS_OMM_VERS = 2.0
CREATION_DATE  = 
ORIGINATOR     = 

OBJECT_NAME    = SL-14 R/B
OBJECT_ID      = 1990-018B
CENTER_NAME    = EARTH
REF_FRAME      = TEME
TIME_SYSTEM    = UTC
MEAN_ELEMENT_THEORY = SGP/SGP4

EPOCH          = 2026-02-10T02:12:49.129056
MEAN_MOTION    = 14.82115477
ECCENTRICITY   = .00163281
INCLINATION    = 82.5181
RA_OF_ASC_NODE = 248.8906
ARG_OF_PERICENTER = 177.9033
MEAN_ANOMALY   = 182.2253

EPHEMERIS_TYPE = 0
CLASSIFICATION_TYPE = U
NORAD_CAT_ID   = 20511
ELEMENT_SET_NO = 999
REV_AT_EPOCH   = 91849
BSTAR          = .51881964E-4
MEAN_MOTION_DOT = .437E-5
MEAN_MOTION_DDOT = 0

CCSDS_OMM_VERS = 2.0
CREATION_DATE  = 
ORIGINATOR     = 

OBJECT_NAME    = HST
OBJECT_ID      = 1990-037B
CENTER_NAME    = EARTH
REF_FRAME      = TEME
TIME_SYSTEM    = UTC
MEAN_ELEMENT_THEORY = SGP/SGP4

EPOCH          = 2026-02-09T18:00:39.033792
MEAN_MOTION    = 15.29031698
ECCENTRICITY   = .00017443
INCLINATION    = 28.4664
RA_OF_ASC_NODE = 230.5298
ARG_OF_PERICENTER = 153.1588
MEAN_ANOMALY   = 206.9098

EPHEMERIS_TYPE = 0
CLASSIFICATION_TYPE = U
NORAD_CAT_ID   = 20580
ELEMENT_SET_NO = 999
REV_AT_EPOCH   = 76903
BSTAR          = .25799604E-3
MEAN_MOTION_DOT = .7715E-4
MEAN_MOTION_DDOT = 0

CCSDS_OMM_VERS = 2.0
CREATION_DATE  = 
ORIGINATOR     = 

OBJECT_NAME    = SL-16 R/B
OBJECT_ID      = 1990-046B
CENTER_NAME    = EARTH
REF_FRAME      = TEME
TIME_SYSTEM    = UTC
MEAN_ELEMENT_THEORY = SGP/SGP4

EPOCH          = 2026-02-10T06:27:03.110400
MEAN_MOTION    = 14.15006976
ECCENTRICITY   = .00148048
INCLINATION    = 71.0006
RA_OF_ASC_NODE = 355.4996
ARG_OF_PERICENTER = 337.9477
MEAN_ANOMALY   = 22.1007

EPHEMERIS_TYPE = 0
CLASSIFICATION_TYPE = U
NORAD_CAT_ID   = 20625
ELEMENT_SET_NO = 999
REV_AT_EPOCH   = 84451
BSTAR          = .16165025E-3
MEAN_MOTION_DOT = .266E-5
MEAN_MOTION_DDOT = 0

CCSDS_OMM_VERS = 2.0
CREATION_DATE  = 
ORIGINATOR     = 

OBJECT_NAME    = COSMOS 2084
OBJECT_ID      = 1990-055A
CENTER_NAME    = EARTH
REF_FRAME      = TEME
TIME_SYSTEM    = UTC
MEAN_ELEMENT_THEORY = SGP/SGP4

EPOCH          = 2026-02-10T05:23:29.048928
MEAN_MOTION    = 15.05471022
ECCENTRICITY   = .0021487
INCLINATION    = 62.7895
RA_OF_ASC_NODE = 69.2383
ARG_OF_PERICENTER = 184.1917
MEAN_ANOMALY   = 175.9007

EPHEMERIS_TYPE = 0
CLASSIFICATION_TYPE = U
NORAD_CAT_ID   = 20663
ELEMENT_SET_NO = 999
REV_AT_EPOCH   = 93218
BSTAR          = .1981063E-3
MEAN_MOTION_DOT = .2671E-4
MEAN_MOTION_DDOT = 0

CCSDS_OMM_VERS = 2.0
CREATION_DATE  = 
ORIGINATOR     = 

OBJECT_NAME    = SL-6 R/B(2)
OBJECT_ID      = 1990-055D
CENTER_NAME    = EARTH
REF_FRAME      = TEME
TIME_SYSTEM    = UTC
MEAN_ELEMENT_THEORY = SGP/SGP4

EPOCH          = 2026-02-10T05:40:46.717248
MEAN_MOTION    = 15.03450542
ECCENTRICITY   = .00206222
INCLINATION    = 62.7847
RA_OF_ASC_NODE = 347.1981
ARG_OF_PERICENTER = 339.2736
MEAN_ANOMALY   = 20.7525

EPHEMERIS_TYPE = 0
CLASSIFICATION_TYPE = U
NORAD_CAT_ID   = 20666
ELEMENT_SET_NO = 999
REV_AT_EPOCH   = 93406
BSTAR          = .22436458E-3
MEAN_MOTION_DOT = .2884E-4
MEAN_MOTION_DDOT = 0

CCSDS_OMM_VERS = 2.0
CREATION_DATE  = 
ORIGINATOR     = 

OBJECT_NAME    = SL-8 R/B
OBJECT_ID      = 1990-078B
CENTER_NAME    = EARTH
REF_FRAME      = TEME
TIME_SYSTEM    = UTC
MEAN_ELEMENT_THEORY = SGP/SGP4

EPOCH          = 2026-02-10T03:36:20.661696
MEAN_MOTION    = 14.88150451
ECCENTRICITY   = .03668728
INCLINATION    = 82.9019
RA_OF_ASC_NODE = 276.0595
ARG_OF_PERICENTER = 106.2701
MEAN_ANOMALY   = 257.9199

EPHEMERIS_TYPE = 0
CLASSIFICATION_TYPE = U
NORAD_CAT_ID   = 20775
ELEMENT_SET_NO = 999
REV_AT_EPOCH   = 80520
BSTAR          = .43682396E-3
MEAN_MOTION_DOT = .14837E-3
MEAN_MOTION_DDOT = 0

CCSDS_OMM_VERS = 2.0
CREATION_DATE  = 
ORIGINATOR     = 

OBJECT_NAME    = SL-8 R/B
OBJECT_ID      = 1991-006B
CENTER_NAME    = EARTH
REF_FRAME      = TEME
TIME_SYSTEM    = UTC
MEAN_ELEMENT_THEORY = SGP/SGP4

EPOCH          = 2026-02-09T21:17:38.205600
MEAN_MOTION    = 13.77492169
ECCENTRICITY   = .0023674
INCLINATION    = 82.9435
RA_OF_ASC_NODE = 190.7156
ARG_OF_PERICENTER = 112.2700
MEAN_ANOMALY   = 359.0696

EPHEMERIS_TYPE = 0
CLASSIFICATION_TYPE = U
NORAD_CAT_ID   = 21088
ELEMENT_SET_NO = 999
REV_AT_EPOCH   = 76024
BSTAR          = .30295E-4
MEAN_MOTION_DOT = .46E-6
MEAN_MOTION_DDOT = 0

CCSDS_OMM_VERS = 2.0
CREATION_DATE  = 
ORIGINATOR     = 

OBJECT_NAME    = OKEAN-3
OBJECT_ID      = 1991-039A
CENTER_NAME    = EARTH
REF_FRAME      = TEME
TIME_SYSTEM    = UTC
MEAN_ELEMENT_THEORY = SGP/SGP4

EPOCH          = 2026-02-10T06:44:24.785952
MEAN_MOTION    = 15.04583836
ECCENTRICITY   = .00165087
INCLINATION    = 82.5176
RA_OF_ASC_NODE = 3.3879
ARG_OF_PERICENTER = 66.9804
MEAN_ANOMALY   = 293.3161

EPHEMERIS_TYPE = 0
CLASSIFICATION_TYPE = U
NORAD_CAT_ID   = 21397
ELEMENT_SET_NO = 999
REV_AT_EPOCH   = 86091
BSTAR          = .25886952E-3
MEAN_MOTION_DOT = .3669E-4
MEAN_MOTION_DDOT = 0

CCSDS_OMM_VERS = 2.0
CREATION_DATE  = 
ORIGINATOR     = 

OBJECT_NAME    = COSMOS 2151
OBJECT_ID      = 1991-042A
CENTER_NAME    = EARTH
REF_FRAME      = TEME
TIME_SYSTEM    = UTC
MEAN_ELEMENT_THEORY = SGP/SGP4

EPOCH          = 2026-02-10T06:24:34.624224
MEAN_MOTION    = 15.00000400
ECCENTRICITY   = .00133655
INCLINATION    = 82.4963
RA_OF_ASC_NODE = 110.1297
ARG_OF_PERICENTER = 146.8556
MEAN_ANOMALY   = 213.3508

EPHEMERIS_TYPE = 0
CLASSIFICATION_TYPE = U
NORAD_CAT_ID   = 21422
ELEMENT_SET_NO = 999
REV_AT_EPOCH   = 85908
BSTAR          = .1834204E-3
MEAN_MOTION_DOT = .2311E-4
MEAN_MOTION_DDOT = 0

