DELTA 2 R/B(1)          
1 20453U 90008B   26041.26353383  .00066828  00000+0  87954-3 0  9992
2 20453  35.6055 354.3158 0093532   2.5651 357.5548 15.52162436921868
COSMOS 2058             
1 20465U 90010A   26041.16895194  .00004351  00000+0  25807-3 0  9990
2 20465  82.4644  74.5395 0011914  73.9291 286.3250 15.11064924938084
SL-14 R/B               
1 20466U 90010B   26041.16849073  .00000494  00000+0  56942-4 0  9995
2 20466  82.5025 293.2415 0020709  34.3435 325.9114 14.83544862924407
SL-14 R/B               
1 20511U 90018B   26041.09223529  .00000437  00000+0  51882-4 0  9993
2 20511  82.5181 248.8906 0016328 177.9033 182.2253 14.82115477918497
HST                     
1 20580U 90037B   26040.75045178  .00007715  00000+0  25800-3 0  9990
2 20580  28.4664 230.5298 0001744 153.1588 206.9098 15.29031698769036
SL-16 R/B               
1 20625U 90046B   26041.26878600  .00000266  00000+0  16165-3 0  9999
2 20625  71.0006 355.4996 0014804 337.9477  22.1007 14.15006976844512
COSMOS 2084             
1 20663U 90055A   26041.22464177  .00002671  00000+0  19811-3 0  9990
2 20663  62.7895  69.2383 0021487 184.1917 175.9007 15.05471022932189
SL-6 R/B(2)             
1 20666U 90055D   26041.23665182  .00002884  00000+0  22436-3 0  9996
2 20666  62.7847 347.1981 0020622 339.2736  20.7525 15.03450542934066
SL-8 R/B                
1 20775U 90078B   26041.15023914  .00014837  00000+0  43682-3 0  9991
2 20775  82.9019 276.0595 0366872 106.2701 257.9199 14.88150451805209
SL-8 R/B                
1 21088U 91006B   26040.88724775  .00000046  00000+0  30295-4 0  9997
2 21088  82.9435 190.7156 0023674 112.2700 359.0696 13.77492169760242
OKEAN-3                 
1 21397U 91039A   26041.28084243  .00003669  00000+0  25887-3 0  9994
2 21397  82.5176   3.3879 0016508  66.9804 293.3161 15.04583836860918
COSMOS 2151             
1 21422U 91042A   26041.26706741  .00002311  00000+0  18342-3 0  9990
2 21422  82.4963 110.1297 0013365 146.8556 213.3508 15.00000400859081
